IRIDIUM 65 [+]          
1 25288U 98021D   16018.57356944  .00000217  00000-0  70509-4 0  9999
2 25288  86.3953  79.4297 0002083 100.0974 260.0456 14.34219791931112
IRIDIUM 66 [+]          
1 25289U 98021E   16018.61138944  .00000233  00000-0  76224-4 0  9991
2 25289  86.3952  79.3216 0002093  96.8149  65.7419 14.34219662931115
IRIDIUM 67 [+]          
1 25290U 98021F   16018.58624833  .00000230  00000-0  74957-4 0  9994
2 25290  86.3953  79.4609 0002168  96.9270 263.2172 14.34219441931121
IRIDIUM 68 [+]          
1 25291U 98021G   16018.31353399  .00000216  00000-0  69972-4 0  9997
2 25291  86.3956  79.6840 0002094  95.1937 264.9498 14.34219426931057
IRIDIUM 69 [-]          
1 25319U 98026A   16018.36737487  .00000213  00000-0  63145-4 0  9995
2 25319  86.4006 102.7398 0003290 131.2361 272.9814 14.38539845928885
IRIDIUM 71 [-]          
1 25320U 98026B   16018.36838796  .00000184  00000-0  53400-4 0  9992
2 25320  86.3985  98.8788 0001320 160.3876 248.4564 14.38967220929294
IRIDIUM 70 [+]          
1 25342U 98032A   16018.28241973  .00000209  00000-0  67742-4 0  9991
2 25342  86.3960  79.9142 0002051  96.4102 332.3190 14.34219475925155
IRIDIUM 72 [+]          
1 25343U 98032B   16018.26946689  .00000229  00000-0  74652-4 0  9996
2 25343  86.3954  79.5651 0002151  96.7092 330.6972 14.34219159925150
IRIDIUM 73 [-]          
1 25344U 98032C   16018.57970120  .00000235  00000-0  56701-4 0  9990
2 25344  86.4405  60.8398 0002212  74.5935  78.8625 14.48878004932892
IRIDIUM 74 [S]          
1 25345U 98032D   16018.28025862  .00000279  00000-0  77384-4 0  9991
2 25345  86.4466  79.8900 0002354  98.9577 329.1477 14.42944672928350
IRIDIUM 75 [+]          
1 25346U 98032E   16018.27583946  .00000224  00000-0  72952-4 0  9999
2 25346  86.3957  79.7966 0002160  96.3214 331.1775 14.34219345925726
IRIDIUM 3 [+]           
1 25431U 98048A   16018.39708671  .00000288  00000-0  95924-4 0  9992
2 25431  86.3987 111.3517 0001991 100.3108 313.2479 14.34224009911683
IRIDIUM 76 [+]          
1 25432U 98048B   16018.41476578  .00000286  00000-0  94916-4 0  9992
2 25432  86.3984 111.1154 0002026  95.0772 311.5493 14.34224416911671
IRIDIUM 82 [+]          
1 25467U 98051A   16018.51459576 -.00000158  00000-0 -63399-4 0  9995
2 25467  86.3959 237.6398 0002018  91.4666 268.6761 14.34220779912701
IRIDIUM 81 [+]          
1 25468U 98051B   16018.57802266  .00000155  00000-0  48434-4 0  9998
2 25468  86.3948 237.2598 0002151  88.1101 272.0341 14.34220281908934
IRIDIUM 80 [+]          
1 25469U 98051C   16018.56455115  .00000054  00000-0  12283-4 0  9996
2 25469  86.3951 237.5290 0002123  84.7361 304.0359 14.34219472908935
IRIDIUM 77 [+]          
1 25471U 98051E   16018.57096039  .00000027  00000-0  25469-5 0  9997
2 25471  86.3941 237.1475 0001900  85.5245 303.7552 14.34217921914137
IRIDIUM 2 [-]           
1 25527U 98066A   16018.56052214  .00004110  00000-0  22202-3 0  9998
2 25527  85.5326 336.1372 0009974 167.5782 244.7389 15.14371637939783
IRIDIUM 86 [+]          
1 25528U 98066B   16018.52380982 -.00000000  00000-0 -71418-5 0  9992
2 25528  86.3952 205.3574 0001695  89.1875 270.9515 14.34219451905458
IRIDIUM 84 [+]          
1 25530U 98066D   16018.48575111  .00000012  00000-0 -29543-5 0  9994
2 25530  86.3952 205.5293 0001955  86.4246 273.7174 14.34219420903087
IRIDIUM 83 [+]          
1 25531U 98066E   16018.51746846  .00000010  00000-0 -35979-5 0  9992
2 25531  86.3956 205.6204 0001943  85.9077 274.2341 14.34217559900448
IRIDIUM 20 [+]          
1 25577U 98074A   16018.36770298  .00000282  00000-0  93476-4 0  9997
2 25577  86.3962 111.0624 0001264  78.5068 281.6270 14.34213805894507
IRIDIUM 11 [+]          
1 25578U 98074B   16018.61549821  .00000274  00000-0  90742-4 0  9996
2 25578  86.3981 111.1668 0002174 102.8251  30.4922 14.34224381903500
IRIDIUM 14 [S]          
1 25777U 99032A   16018.59157530  .00000223  00000-0  72717-4 0  9997
2 25777  86.3955  79.5029 0002034  98.5881  59.8942 14.34219235880777
IRIDIUM 21 [+]          
1 25778U 99032B   16018.31987482  .00000209  00000-0  67566-4 0  9995
2 25778  86.3955  79.6414 0002194  92.6858 267.4589 14.34219061874171
IRIDIUM 91 [+]          
1 27372U 02005A   16018.44105414  .00000253  00000-0  83392-4 0  9996
2 27372  86.4012 143.3910 0002296 100.9986 325.3451 14.34220188737707
IRIDIUM 90 [S]          
1 27373U 02005B   16018.52985301  .00000037  00000-0  51022-5 0  9993
2 27373  86.4465 205.5787 0001749  85.9000 274.2401 14.42944176736990
IRIDIUM 94 [S]          
1 27374U 02005C   16018.40825994  .00000291  00000-0  97028-4 0  9999
2 27374  86.3985 111.3736 0001216  73.4008 332.3932 14.34214439742023
IRIDIUM 95 [+]          
1 27375U 02005D   16018.46627502  .00000246  00000-0  80914-4 0  9997
2 27375  86.4011 143.1642 0001970  94.8216 265.3205 14.34219580736998
IRIDIUM 96 [S]          
1 27376U 02005E   16018.51406397  .00000068  00000-0  17133-4 0  9996
2 27376  86.4013 174.5897 0002863  61.9023 298.2462 14.34216052742206
IRIDIUM 97 [+]          
1 27450U 02031A   16018.55210097  .00000063  00000-0  15472-4 0  9991
2 27450  86.3981 174.4402 0002213  95.9040 264.2408 14.34216798716322
IRIDIUM 98 [S]          
1 27451U 02031B   16018.61433939  .00000053  00000-0  11862-4 0  9999
2 27451  86.3942 237.7002 0002192  87.4020 296.4437 14.34220479717409
